{"fetched_at":"2026-07-08T07:03:56.164Z","source":"https://celestrak.org/NORAD/elements/gp.php?NAME=GLOBAL&FORMAT=JSON","constellation":"blacksky-gen2","records":[{"OBJECT_NAME":"GLOBAL-2","OBJECT_ID":"2018-099BG","EPOCH":"2026-07-07T04:05:48.760800","CLASSIFICATION_TYPE":"U","MEAN_MOTION":15.0879723,"ECCENTRICITY":0.00076423,"INCLINATION":97.355,"RA_OF_ASC_NODE":223.853,"ARG_OF_PERICENTER":88.6043,"MEAN_ANOMALY":271.6062,"EPHEMERIS_TYPE":0,"NORAD_CAT_ID":43812,"ELEMENT_SET_NO":999,"REV_AT_EPOCH":41492,"BSTAR":0.00016804796,"MEAN_MOTION_DOT":0.00002583,"MEAN_MOTION_DDOT":0},{"OBJECT_NAME":"GLOBAL-4","OBJECT_ID":"2019-054E","EPOCH":"2026-07-07T04:18:55.098432","CLASSIFICATION_TYPE":"U","MEAN_MOTION":15.66393813,"ECCENTRICITY":0.00042708,"INCLINATION":45.0043,"RA_OF_ASC_NODE":120.8797,"ARG_OF_PERICENTER":139.7591,"MEAN_ANOMALY":220.3623,"EPHEMERIS_TYPE":0,"NORAD_CAT_ID":44499,"ELEMENT_SET_NO":999,"REV_AT_EPOCH":38349,"BSTAR":0.00044451518,"MEAN_MOTION_DOT":0.00047212,"MEAN_MOTION_DDOT":0},{"OBJECT_NAME":"GLOBAL-9","OBJECT_ID":"2021-023G","EPOCH":"2026-07-07T04:57:39.578976","CLASSIFICATION_TYPE":"U","MEAN_MOTION":15.47367821,"ECCENTRICITY":0.00026394,"INCLINATION":44.9802,"RA_OF_ASC_NODE":137.9417,"ARG_OF_PERICENTER":104.7424,"MEAN_ANOMALY":255.3759,"EPHEMERIS_TYPE":0,"NORAD_CAT_ID":47971,"ELEMENT_SET_NO":999,"REV_AT_EPOCH":29804,"BSTAR":0.0003135369,"MEAN_MOTION_DOT":0.00016065,"MEAN_MOTION_DDOT":0},{"OBJECT_NAME":"GLOBAL-14","OBJECT_ID":"2021-106A","EPOCH":"2026-07-07T15:02:22.026048","CLASSIFICATION_TYPE":"U","MEAN_MOTION":15.51556571,"ECCENTRICITY":0.0016341,"INCLINATION":42.0027,"RA_OF_ASC_NODE":169.5202,"ARG_OF_PERICENTER":172.3093,"MEAN_ANOMALY":187.8005,"EPHEMERIS_TYPE":0,"NORAD_CAT_ID":49469,"ELEMENT_SET_NO":999,"REV_AT_EPOCH":26130,"BSTAR":0.00028867,"MEAN_MOTION_DOT":0.00017359,"MEAN_MOTION_DDOT":0},{"OBJECT_NAME":"GLOBAL-12","OBJECT_ID":"2021-115BA","EPOCH":"2026-07-07T07:54:22.744224","CLASSIFICATION_TYPE":"U","MEAN_MOTION":15.54947504,"ECCENTRICITY":0.00026035,"INCLINATION":53.1957,"RA_OF_ASC_NODE":307.6011,"ARG_OF_PERICENTER":70.1313,"MEAN_ANOMALY":289.9979,"EPHEMERIS_TYPE":0,"NORAD_CAT_ID":49772,"ELEMENT_SET_NO":999,"REV_AT_EPOCH":25903,"BSTAR":0.00041159956,"MEAN_MOTION_DOT":0.00027653,"MEAN_MOTION_DDOT":0},{"OBJECT_NAME":"GLOBAL-13","OBJECT_ID":"2021-115BB","EPOCH":"2026-07-07T16:06:57.225024","CLASSIFICATION_TYPE":"U","MEAN_MOTION":15.46900142,"ECCENTRICITY":0.0001463,"INCLINATION":53.1978,"RA_OF_ASC_NODE":317.154,"ARG_OF_PERICENTER":148.3296,"MEAN_ANOMALY":211.7801,"EPHEMERIS_TYPE":0,"NORAD_CAT_ID":49773,"ELEMENT_SET_NO":999,"REV_AT_EPOCH":25893,"BSTAR":0.00029346,"MEAN_MOTION_DOT":0.00014598,"MEAN_MOTION_DDOT":0},{"OBJECT_NAME":"GLOBAL-17","OBJECT_ID":"2021-120A","EPOCH":"2026-07-07T16:05:48.325344","CLASSIFICATION_TYPE":"U","MEAN_MOTION":15.53418345,"ECCENTRICITY":0.0013973,"INCLINATION":41.9951,"RA_OF_ASC_NODE":287.1403,"ARG_OF_PERICENTER":33.0698,"MEAN_ANOMALY":327.1018,"EPHEMERIS_TYPE":0,"NORAD_CAT_ID":49949,"ELEMENT_SET_NO":999,"REV_AT_EPOCH":25808,"BSTAR":0.00031893,"MEAN_MOTION_DOT":0.00020546,"MEAN_MOTION_DDOT":0},{"OBJECT_NAME":"GLOBAL-16","OBJECT_ID":"2021-120B","EPOCH":"2026-07-07T17:05:48.469920","CLASSIFICATION_TYPE":"U","MEAN_MOTION":15.51218502,"ECCENTRICITY":0.0012242,"INCLINATION":41.9954,"RA_OF_ASC_NODE":291.0154,"ARG_OF_PERICENTER":22.7157,"MEAN_ANOMALY":337.4226,"EPHEMERIS_TYPE":0,"NORAD_CAT_ID":49950,"ELEMENT_SET_NO":999,"REV_AT_EPOCH":25803,"BSTAR":0.00029879,"MEAN_MOTION_DOT":0.00017719,"MEAN_MOTION_DDOT":0},{"OBJECT_NAME":"GLOBAL-18","OBJECT_ID":"2022-034B","EPOCH":"2026-07-06T21:35:03.701760","CLASSIFICATION_TYPE":"U","MEAN_MOTION":15.46973117,"ECCENTRICITY":0.00041105,"INCLINATION":52.9802,"RA_OF_ASC_NODE":162.3799,"ARG_OF_PERICENTER":1.2196,"MEAN_ANOMALY":358.8819,"EPHEMERIS_TYPE":0,"NORAD_CAT_ID":52196,"ELEMENT_SET_NO":999,"REV_AT_EPOCH":24001,"BSTAR":0.00027699361,"MEAN_MOTION_DOT":0.00013792,"MEAN_MOTION_DDOT":0},{"OBJECT_NAME":"GLOBAL-19","OBJECT_ID":"2023-041B","EPOCH":"2026-07-06T02:56:39.954624","CLASSIFICATION_TYPE":"U","MEAN_MOTION":15.38514598,"ECCENTRICITY":0.00080337,"INCLINATION":42.0015,"RA_OF_ASC_NODE":91.4283,"ARG_OF_PERICENTER":156.0579,"MEAN_ANOMALY":204.0636,"EPHEMERIS_TYPE":0,"NORAD_CAT_ID":55982,"ELEMENT_SET_NO":999,"REV_AT_EPOCH":18484,"BSTAR":0.0003680252,"MEAN_MOTION_DOT":0.00014081,"MEAN_MOTION_DDOT":0},{"OBJECT_NAME":"GLOBAL-5","OBJECT_ID":"2023-041C","EPOCH":"2026-07-06T22:25:34.466880","CLASSIFICATION_TYPE":"U","MEAN_MOTION":15.38543185,"ECCENTRICITY":0.00070656,"INCLINATION":42.0002,"RA_OF_ASC_NODE":86.2185,"ARG_OF_PERICENTER":156.096,"MEAN_ANOMALY":204.0209,"EPHEMERIS_TYPE":0,"NORAD_CAT_ID":55983,"ELEMENT_SET_NO":999,"REV_AT_EPOCH":18497,"BSTAR":0.00028027263,"MEAN_MOTION_DOT":0.00010661,"MEAN_MOTION_DDOT":0}]}
